{
  "type": "FeatureCollection",
  "features": [
    {
      "type": "Feature",
      "properties": {
        "norad_id": 32419,
        "name": "FENGYUN 1C DEB",
        "group": "fengyun-1c-debris",
        "lat": -10.680888697274904,
        "lon": 110.42182961425107,
        "alt_km": 1062.39977256586,
        "timestamp": "2025-12-23T22:42:33.271244+00:00",
        "meta_object_name": "FENGYUN 1C DEB",
        "meta_object_id": "1999-025DAF",
        "meta_epoch": "2025-12-11T15:09:56.013984",
        "meta_mean_motion": 14.09908253,
        "meta_eccentricity": 0.02839501,
        "meta_inclination": 97.9459,
        "meta_ra_of_asc_node": 281.0334,
        "meta_arg_of_pericenter": 32.1797,
        "meta_mean_anomaly": 329.6358,
        "meta_ephemeris_type": 0,
        "meta_classification_type": "U",
        "meta_norad_cat_id": 32419,
        "meta_element_set_no": 999,
        "meta_rev_at_epoch": 63555,
        "meta_bstar": 0.0013854285,
        "meta_mean_motion_dot": 3.513e-05,
        "meta_mean_motion_ddot": 0,
        "tle_line1": "1 32419U 99025DAF 25345.63189831  .00003513  00000+0  13854-2 0  9996",
        "tle_line2": "2 32419  97.9459 281.0334 0283950  32.1797 329.6358 14.09908253635552"
      },
      "geometry": {
        "type": "Point",
        "coordinates": [
          110.42182961425107,
          -10.680888697274904
        ]
      }
    },
    {
      "type": "Feature",
      "properties": {
        "norad_id": 32422,
        "name": "FENGYUN 1C DEB",
        "group": "fengyun-1c-debris",
        "lat": -49.75146820363246,
        "lon": -61.52400175632082,
        "alt_km": 718.6093327553726,
        "timestamp": "2025-12-23T22:42:33.271254+00:00",
        "meta_object_name": "FENGYUN 1C DEB",
        "meta_object_id": "1999-025DAJ",
        "meta_epoch": "2025-12-18T14:28:39.254304",
        "meta_mean_motion": 13.98014994,
        "meta_eccentricity": 0.02982939,
        "meta_inclination": 97.8414,
        "meta_ra_of_asc_node": 123.2691,
        "meta_arg_of_pericenter": 275.9311,
        "meta_mean_anomaly": 80.7936,
        "meta_ephemeris_type": 0,
        "meta_classification_type": "U",
        "meta_norad_cat_id": 32422,
        "meta_element_set_no": 999,
        "meta_rev_at_epoch": 63215,
        "meta_bstar": 0.00020595213,
        "meta_mean_motion_dot": 3.88e-06,
        "meta_mean_motion_ddot": 0,
        "tle_line1": "1 32422U 99025DAJ 25352.60323211  .00000388  00000+0  20595-3 0  9995",
        "tle_line2": "2 32422  97.8414 123.2691 0298293 275.9311  80.7936 13.98014994632151"
      },
      "geometry": {
        "type": "Point",
        "coordinates": [
          -61.52400175632082,
          -49.75146820363246
        ]
      }
    },
    {
      "type": "Feature",
      "properties": {
        "norad_id": 32425,
        "name": "FENGYUN 1C DEB",
        "group": "fengyun-1c-debris",
        "lat": -24.33131431661291,
        "lon": -39.50583959201183,
        "alt_km": 758.4856599118948,
        "timestamp": "2025-12-23T22:42:33.271266+00:00",
        "meta_object_name": "FENGYUN 1C DEB",
        "meta_object_id": "1999-025DAM",
        "meta_epoch": "2025-12-12T16:13:12.115488",
        "meta_mean_motion": 14.16741504,
        "meta_eccentricity": 0.02316015,
        "meta_inclination": 96.7012,
        "meta_ra_of_asc_node": 135.0318,
        "meta_arg_of_pericenter": 299.6477,
        "meta_mean_anomaly": 58.1818,
        "meta_ephemeris_type": 0,
        "meta_classification_type": "U",
        "meta_norad_cat_id": 32425,
        "meta_element_set_no": 999,
        "meta_rev_at_epoch": 69534,
        "meta_bstar": 0.00075748036,
        "meta_mean_motion_dot": 1.938e-05,
        "meta_mean_motion_ddot": 0,
        "tle_line1": "1 32425U 99025DAM 25346.67583467  .00001938  00000+0  75748-3 0  9991",
        "tle_line2": "2 32425  96.7012 135.0318 0231601 299.6477  58.1818 14.16741504695342"
      },
      "geometry": {
        "type": "Point",
        "coordinates": [
          -39.50583959201183,
          -24.33131431661291
        ]
      }
    },
    {
      "type": "Feature",
      "properties": {
        "norad_id": 32430,
        "name": "FENGYUN 1C DEB",
        "group": "fengyun-1c-debris",
        "lat": -73.88834154384118,
        "lon": 169.64581594001552,
        "alt_km": 743.067094879053,
        "timestamp": "2025-12-23T22:42:33.271279+00:00",
        "meta_object_name": "FENGYUN 1C DEB",
        "meta_object_id": "1999-025DAS",
        "meta_epoch": "2025-12-21T18:37:28.769952",
        "meta_mean_motion": 13.70174337,
        "meta_eccentricity": 0.03701792,
        "meta_inclination": 98.6955,
        "meta_ra_of_asc_node": 19.6703,
        "meta_arg_of_pericenter": 246.0099,
        "meta_mean_anomaly": 110.1886,
        "meta_ephemeris_type": 0,
        "meta_classification_type": "U",
        "meta_norad_cat_id": 32430,
        "meta_element_set_no": 999,
        "meta_rev_at_epoch": 91327,
        "meta_bstar": 0.0015312078,
        "meta_mean_motion_dot": 2.148e-05,
        "meta_mean_motion_ddot": 0,
        "tle_line1": "1 32430U 99025DAS 25355.77602743  .00002148  00000+0  15312-2 0  9991",
        "tle_line2": "2 32430  98.6955  19.6703 0370179 246.0099 110.1886 13.70174337913272"
      },
      "geometry": {
        "type": "Point",
        "coordinates": [
          169.64581594001552,
          -73.88834154384118
        ]
      }
    },
    {
      "type": "Feature",
      "properties": {
        "norad_id": 32432,
        "name": "FENGYUN 1C DEB",
        "group": "fengyun-1c-debris",
        "lat": 9.554654945547618,
        "lon": -144.77279676426738,
        "alt_km": 739.7006112110839,
        "timestamp": "2025-12-23T22:42:33.271291+00:00",
        "meta_object_name": "FENGYUN 1C DEB",
        "meta_object_id": "1999-025DAU",
        "meta_epoch": "2025-12-19T22:01:28.238880",
        "meta_mean_motion": 14.52565689,
        "meta_eccentricity": 0.0172607,
        "meta_inclination": 98.1702,
        "meta_ra_of_asc_node": 29.9168,
        "meta_arg_of_pericenter": 283.4491,
        "meta_mean_anomaly": 74.752,
        "meta_ephemeris_type": 0,
        "meta_classification_type": "U",
        "meta_norad_cat_id": 32432,
        "meta_element_set_no": 999,
        "meta_rev_at_epoch": 70799,
        "meta_bstar": 0.00092211,
        "meta_mean_motion_dot": 4.533e-05,
        "meta_mean_motion_ddot": 0,
        "tle_line1": "1 32432U 99025DAU 25353.91768795  .00004533  00000+0  92211-3 0  9991",
        "tle_line2": "2 32432  98.1702  29.9168 0172607 283.4491  74.7520 14.52565689707990"
      },
      "geometry": {
        "type": "Point",
        "coordinates": [
          -144.77279676426738,
          9.554654945547618
        ]
      }
    },
    {
      "type": "Feature",
      "properties": {
        "norad_id": 32440,
        "name": "FENGYUN 1C DEB",
        "group": "fengyun-1c-debris",
        "lat": 44.259617547813804,
        "lon": -156.5370848236777,
        "alt_km": 797.7478288327839,
        "timestamp": "2025-12-23T22:42:33.271301+00:00",
        "meta_object_name": "FENGYUN 1C DEB",
        "meta_object_id": "1999-025DBC",
        "meta_epoch": "2025-12-21T08:45:49.224384",
        "meta_mean_motion": 13.61320205,
        "meta_eccentricity": 0.03221395,
        "meta_inclination": 99.1537,
        "meta_ra_of_asc_node": 210.0793,
        "meta_arg_of_pericenter": 68.4191,
        "meta_mean_anomaly": 295.0952,
        "meta_ephemeris_type": 0,
        "meta_classification_type": "U",
        "meta_norad_cat_id": 32440,
        "meta_element_set_no": 999,
        "meta_rev_at_epoch": 60403,
        "meta_bstar": 0.0031807583,
        "meta_mean_motion_dot": 3.388e-05,
        "meta_mean_motion_ddot": 0,
        "tle_line1": "1 32440U 99025DBC 25355.36515306  .00003388  00000+0  31808-2 0  9990",
        "tle_line2": "2 32440  99.1537 210.0793 0322139  68.4191 295.0952 13.61320205604038"
      },
      "geometry": {
        "type": "Point",
        "coordinates": [
          -156.5370848236777,
          44.259617547813804
        ]
      }
    },
    {
      "type": "Feature",
      "properties": {
        "norad_id": 32447,
        "name": "FENGYUN 1C DEB",
        "group": "fengyun-1c-debris",
        "lat": -68.34866286045302,
        "lon": 170.3984487558952,
        "alt_km": 943.8555756930664,
        "timestamp": "2025-12-23T22:42:33.271311+00:00",
        "meta_object_name": "FENGYUN 1C DEB",
        "meta_object_id": "1999-025DBK",
        "meta_epoch": "2025-12-09T20:22:18.261408",
        "meta_mean_motion": 13.96013309,
        "meta_eccentricity": 0.00800272,
        "meta_inclination": 98.9313,
        "meta_ra_of_asc_node": 0.0649,
        "meta_arg_of_pericenter": 49.1812,
        "meta_mean_anomaly": 311.6255,
        "meta_ephemeris_type": 0,
        "meta_classification_type": "U",
        "meta_norad_cat_id": 32447,
        "meta_element_set_no": 999,
        "meta_rev_at_epoch": 67838,
        "meta_bstar": 0.00036340481,
        "meta_mean_motion_dot": 4.69e-06,
        "meta_mean_motion_ddot": 0,
        "tle_line1": "1 32447U 99025DBK 25343.84882247  .00000469  00000+0  36340-3 0  9992",
        "tle_line2": "2 32447  98.9313   0.0649 0080027  49.1812 311.6255 13.96013309678386"
      },
      "geometry": {
        "type": "Point",
        "coordinates": [
          170.3984487558952,
          -68.34866286045302
        ]
      }
    }
  ]
}